AMAZONAS 3              
1 39078U 13006A   21117.51333931 -.00000285  00000-0  00000-0 0  9993
2 39078   0.0228 199.9057 0001509 196.6260 302.9760  1.00272771 26086
AZERSPACE 1             
1 39079U 13006B   21117.46291696  .00000130  00000-0  00000-0 0  9997
2 39079   0.0381  87.3785 0002641 349.1159 351.8281  1.00268787 29980
SBIRS GEO-2 (USA 241)   
1 39120U 13011A   21117.52956517  .00000116  00000-0  00000-0 0  9991
2 39120   1.9013 358.3306 0001804  45.9961  22.6437  1.00272443 29723
EUTELSAT 117 WEST A     
1 39122U 13012A   21117.63170314 -.00000016  00000-0  00000-0 0  9999
2 39122   0.0065  36.7934 0003017   4.9010 284.7491  1.00272070 29620
ANIK G1                 
1 39127U 13014A   21117.61275529 -.00000077  00000-0  00000-0 0  9995
2 39127   0.0210 162.0551 0001153 239.4190 287.6213  1.00271527 29437
CHINASAT 11 (ZX 11)     
1 39157U 13020A   21116.97083682 -.00000293  00000-0  00000-0 0  9990
2 39157   0.0196 266.3728 0002010 107.9224 288.3798  1.00268071 29321
EUTELSAT 7B             
1 39163U 13022A   21117.31156271  .00000045  00000-0  00000-0 0  9997
2 39163   0.0714  12.5342 0005544  12.0513 310.0986  1.00272294 29154
WGS F5 (USA 243)        
1 39168U 13024A   21117.51499677 -.00000287  00000-0  00000-0 0  9995
2 39168   0.0126 243.1376 0000592 195.1245 270.3329  1.00269436 28352
SES-6                   
1 39172U 13026A   21117.44564425 -.00000264  00000-0  00000-0 0  9993
2 39172   0.0269 301.6823 0002111  95.3500 298.5468  1.00272105 28900
IRNSS-1A                
1 39199U 13034A   21116.01021753  .00000111  00000-0  00000-0 0  9995
2 39199  31.5202  91.8234 0019267 187.4735 353.7375  1.00268197 28538
MUOS-2                  
1 39206U 13036A   21117.56227954  .00000062  00000-0  00000+0 0  9992
2 39206   2.5425   7.9767 0051583 177.5062  55.6840  1.00274894 28481
ALPHASAT                
1 39215U 13038A   21117.31513938  .00000132  00000-0  00000-0 0  9996
2 39215   2.5673  17.4636 0002476  36.3281 300.0378  1.00273699 25199
INSAT-3D                
1 39216U 13038B   21117.47007029 -.00000160  00000-0  00000-0 0  9995
2 39216   0.0382  96.2391 0001251 325.8017  45.0170  1.00273445 28284
WGS F6 (USA 244)        
1 39222U 13041A   21117.59372625  .00000086  00000-0  00000-0 0  9992
2 39222   0.0191 262.9033 0000457 201.1736 190.2515  1.00269329 27231
ES'HAIL 1               
1 39233U 13044A   21117.31160595  .00000141  00000-0  00000-0 0  9990
2 39233   0.0560   7.8487 0002543  47.9769 297.3829  1.00274536 27819
GSAT-7                  
1 39234U 13044B   21117.57783549 -.00000080  00000-0  00000-0 0  9992
2 39234   0.0966 100.2414 0006274 181.0019 216.5342  1.00271199 26512
AMOS-4                  
1 39237U 13045A   21117.53846323  .00000004  00000-0  00000-0 0  9997
2 39237   0.0578 100.7999 0002251 291.1238  82.6587  1.00271936 28147
AEHF-3 (USA 246)        
1 39256U 13050A   21117.54762299 -.00000357  00000-0  00000-0 0  9996
2 39256   0.8243  51.6088 0005664 333.6486 138.5968  1.00265247 26854
ASTRA 2E                
1 39285U 13056A   21117.53122265  .00000147  00000-0  00000-0 0  9992
2 39285   0.0876  55.1642 0001939 346.2457  34.0310  1.00271930 27627
FM-6                    
1 39360U 13058A   21117.63170303 -.00000020  00000-0  00000-0 0  9996
2 39360   0.0317 275.9622 0000559 350.4114  60.7119  1.00270711 27242
RADUGA-1M 3             
1 39375U 13062A   21117.53244395  .00000154  00000-0  00000-0 0  9996
2 39375   1.1988  94.4234 0001802 280.5732  67.4071  1.00272926 27306
SES-8                   
1 39460U 13071A   21117.54448250 -.00000272  00000-0  00000-0 0  9990
2 39460   0.0173 236.5804 0002822 184.2421  85.9389  1.00269709 25631
INMARSAT 5-F1           
1 39476U 13073A   21117.10727376  .00000025  00000-0  00000-0 0  9995
2 39476   0.0135 252.4022 0000522 201.3480 222.7636  1.00270771 26768
TKSAT-1 (TUPAC KATARI)  
1 39481U 13075A   21117.50810514 -.00000198  00000-0  00000-0 0  9996
2 39481   0.0616  74.0811 0002985 319.8133 277.5415  1.00272110 26770
EXPRESS-AM5             
1 39487U 13077A   21117.63647470 -.00000283  00000-0  00000-0 0  9992
2 39487   0.0062 296.3295 0000811 220.7111  67.9588  1.00270438 27536
GSAT-14                 
1 39498U 14001A   21117.57768692 -.00000080  00000-0  00000-0 0  9990
2 39498   0.0313 266.0583 0002908  34.9979 196.6863  1.00271883 26593
THAICOM 6               
1 39500U 14002A   21117.54116753 -.00000124  00000-0  00000-0 0  9996
2 39500   0.0733 112.4228 0003972 335.5505  41.0995  1.00271735 26641
TDRS 12                 
1 39504U 14004A   21117.44555701 -.00000279  00000-0  00000+0 0  9991
2 39504   4.2809 341.3009 0002445  80.2817 273.5042  1.00276646 26639
ABS-2                   
1 39508U 14006A   21117.54046965 -.00000089  00000-0  00000-0 0  9995
2 39508   0.0228  79.1338 0003962 322.5670  83.5224  1.00269897 26470
ATHENA-FIDUS            
1 39509U 14006B   21117.53305461  .00000151  00000-0  00000-0 0  9993
2 39509   0.0178 260.3923 0001683 162.7991  22.2269  1.00273460 26253
TURKSAT 4A              
1 39522U 14007A   21117.53383972  .00000143  00000-0  00000-0 0  9993
2 39522   0.0428 270.3539 0002435  70.5815 108.9771  1.00272437 26160
EXPRESS-AT1             
1 39612U 14010A   21117.53663127  .00000075  00000-0  00000-0 0  9994
2 39612   0.0090 293.3197 0000787 172.5337 359.0790  1.00272698 26237
EXPRESS-AT2             
1 39613U 14010B   21117.01507616 -.00000284  00000-0  00000-0 0  9991
2 39613   0.0140 326.2278 0000645 117.8356 276.4253  1.00269724 26069
AMAZONAS 4A             
1 39616U 14011A   21117.51072221 -.00000255  00000-0  00000+0 0  9996
2 39616   0.1183  81.1243 0003417 321.1504 283.3200  1.00267113 26052
ASTRA 5B                
1 39617U 14011B   21117.53174608  .00000152  00000-0  00000-0 0  9997
2 39617   0.0361 347.6305 0003175  61.8073  29.2225  1.00272833 25855
IRNSS-1B                
1 39635U 14017A   21116.99632812  .00000072  00000-0  00000+0 0  9998
2 39635  28.7642 272.0239 0021274 179.4050 177.4286  1.00272903 25976
LUCH 5V                 
1 39727U 14023A   21117.54439527 -.00000270  00000-0  00000-0 0  9999
2 39727   0.6093  51.4236 0005745  21.5213  73.4551  1.00266616 25543
KAZSAT-3                
1 39728U 14023B   21117.59605025  .00000058  00000-0  00000-0 0  9996
2 39728   0.0087 242.5370 0000825 232.9642  13.3643  1.00270068 23641
EUTELSAT 3B             
1 39773U 14030A   21117.37271878  .00000017  00000-0  00000-0 0  9990
2 39773   0.0688 355.4182 0004072 156.3681 201.0560  1.00271329 25246
USA 254                 
1 40100U 14043B   21113.39054421 -.00000254  00000-0  00000+0 0  9994
2 40100   0.0734  68.7899 0000784 304.9129 119.8447  1.00380981  8906
ASIASAT 8 (AMOS-7)      
1 40107U 14046A   21117.30938181 -.00000036  00000-0  00000-0 0  9992
2 40107   0.0454  93.9662 0002423 315.0723 273.9698  1.00271272 83337
ASIASAT 6               
1 40141U 14052A   21117.02618770 -.00000365  00000-0  00000-0 0  9990
2 40141   0.0580  77.5809 0000805 314.7810 312.2006  1.00269102 24335
OPTUS 10                
1 40146U 14054A   21117.37961806 -.00000150  00000-0  00000-0 0  9998
2 40146   0.0398 308.8664 0002313 100.3278  99.0496  1.00270394 24203
MEASAT-3B               
1 40147U 14054B   21117.57525628 -.00000245  00000-0  00000-0 0  9994
2 40147   0.0390  48.6737 0002415 345.0345 120.6702  1.00272559 24095
LUCH (OLYMP)            
1 40258U 14058A   21117.52790769  .00000125  00000-0  00000-0 0  9992
2 40258   0.0147 257.7460 0002205  71.9570  88.0642  1.00701451 22171
HIMAWARI-8              
1 40267U 14060A   21117.63236274 -.00000279  00000-0  00000-0 0  9994
2 40267   0.0378 156.3170 0000841 279.2076 148.6213  1.00271613 23942
IRNSS-1C                
1 40269U 14061A   21117.57554117 -.00000161  00000-0  00000-0 0  9999
2 40269   2.2087 151.6168 0018529   9.9873 344.3937  1.00271002 23866
INTELSAT 30 (IS-30)     
1 40271U 14062A   21116.31135788 -.00000153  00000-0  00000+0 0  9993
2 40271   0.0188 267.7643 0001472 179.8109 143.9993  1.00270375 23937
ARSAT 1                 
1 40272U 14062B   21117.51115839 -.00000262  00000-0  00000+0 0  9993
2 40272   0.0143 253.1342 0001704 150.8823 283.9010  1.00269447 24073
EXPRESS-AM6             
1 40277U 14064A   21116.01021752  .00000095  00000-0  00000-0 0  9998
2 40277   0.0216 288.2943 0000280  38.1610 304.4623  1.00273374 23831
GSAT-16                 
1 40332U 14078A   21117.53645681  .00000082  00000-0  00000-0 0  9992
2 40332   0.0679  94.0123 0007015 341.0139  28.9055  1.00272516 23298
DIRECTV 14              
1 40333U 14078B   21117.61911796 -.00000128  00000-0  00000-0 0  9997
2 40333   0.0133 183.9969 0000032 166.2015 349.2754  1.00271034 23235
YAMAL 401               
1 40345U 14082A   21117.56621137 -.00000232  00000-0  00000-0 0  9992
2 40345   0.0118 234.9683 0001641 215.3649  59.2345  1.00270199 23108
ASTRA 2G                
1 40364U 14089A   21117.53113542  .00000147  00000-0  00000-0 0  9997
2 40364   0.0458  41.9330 0004965   9.8629  23.3589  1.00273181 23147
FENGYUN 2G              
1 40367U 14090A   21117.39771697 -.00000302  00000-0  00000-0 0  9991
2 40367   0.9050  92.5391 0001941 325.8638  39.8500  1.00264416 23223
MUOS-3                  
1 40374U 15002A   21117.38365380 -.00000135  00000-0  00000-0 0  9994
2 40374   2.6055 356.9396 0052217 177.5430 163.7594  1.00271801 22765
INMARSAT 5-F2           
1 40384U 15005A   21117.44276546 -.00000288  00000-0  00000-0 0  9999
2 40384   0.0142 260.2014 0000304 286.4543 133.3804  1.00268078 22178
ABS-3A                  
1 40424U 15010A   21117.38135142 -.00000029  00000-0  00000-0 0  9992
2 40424   0.0123 252.0198 0002044  77.0528  20.8492  1.00271714 22583
EUTELSAT 115 WEST B     
1 40425U 15010B   21117.63264942 -.00000028  00000-0  00000-0 0  9991
2 40425   0.0136  91.6729 0000236 178.8110  58.2033  1.00272715 22581
